173P/Mueller,e,16.4919,100.3507,29.2207,5.713640,0.0721663,0.26218028,73.2408,09/27.0/2024,2000,g  7.5,4.0
# From MPC 92985
174P/Echeclus,e,4.3423,173.3138,163.4488,10.75769,0.0279335,0.45549644,96.2284,09/27.0/2024,2000,g  9.4,2.0
# From MPC114608
175P/Hergenrother,e,4.9182,109.9398,75.0061,3.681147,0.1395499,0.37800160,261.4928,09/27.0/2024,2000,g 14.0,4.0
# From MPC 89015
176P/LINEAR,e,0.2313,345.6327,34.4544,3.194626,0.1726132,0.19211187,116.8456,09/27.0/2024,2000,g 15.1,2.0
# From MPEC 2020-L06
177P/Barnard,e,31.0252,271.9025,60.6898,24.51687,0.0081191,0.95452122,53.5807,09/27.0/2024,2000,g 15.0,4.0
# From MPEC 2024-R10
178P/Hug-Bell,e,11.0912,102.7904,297.9450,3.632806,0.1423446,0.48246097,218.0700,09/27.0/2024,2000,g 13.5,4.0
# From MPEC 2024-EF7
179P/Jedicke,e,19.8919,115.5125,297.1499,5.935779,0.0681534,0.30568852,57.8786,09/27.0/2024,2000,g  2.5,8.0
# From MPEC 2024-F34
180P/NEAT,e,16.8620,84.5598,94.6294,3.868235,0.1295492,0.35364684,57.3787,09/27.0/2024,2000,g 11.0,4.0
# From MPC 89012
181P/Shoemaker-Levy,e,17.4806,35.4275,336.2956,3.878297,0.1290454,0.70013571,128.0651,09/27.0/2024,2000,g 11.5,4.0
# From MPEC 2014-J10
182P/LONEOS,e,16.2319,72.4498,54.2050,2.949184,0.1946038,0.66372402,169.0083,09/27.0/2024,2000,g 18.0,4.0
# From MPEC 2023-A50
183P/Korlevic-Juric,e,18.7673,3.7462,163.8437,4.697141,0.0968175,0.10277542,253.9338,09/27.0/2024,2000,g 12.5,2.0
# From MPEC 2020-W26
184P/Lovas,e,4.5718,173.2741,186.5640,3.799800,0.1330648,0.55019501,190.5569,09/27.0/2024,2000,g 13.5,4.0
# From MPEC 2024-F91
185P/Petriew,e,14.0137,214.1173,181.9080,3.099030,0.1806615,0.69962238,79.8748,09/27.0/2024,2000,g 15.0,4.0
# From MPEC 2022-X67
186P/Garradd,e,28.6295,326.0311,268.8605,4.852369,0.0922090,0.12417766,194.2237,09/27.0/2024,2000,g  7.5,4.0
# From MPEC 2020-SI8
187P/LINEAR,e,13.6578,109.8421,131.2713,4.556523,0.1013337,0.15484492,235.9506,09/27.0/2024,2000,g  9.0,4.0
# From MPEC 2023-J29
188P/LINEAR-Mueller,e,10.5238,358.9276,26.7837,4.366923,0.1080042,0.41687338,299.1809,09/27.0/2024,2000,g 11.5,4.0
# From MPEC 2022-QD9
189P/NEAT,e,20.1042,281.6733,16.2258,2.941944,0.1953226,0.58959326,148.4620,09/27.0/2024,2000,g 19.0,4.0
# From MPEC 2024-RQ6
190P/Mueller,e,2.1747,335.5009,50.5194,4.226692,0.1134235,0.52219616,350.0047,09/27.0/2024,2000,g 13.0,4.0
# From MPEC 2022-X67
191P/McNaught,e,8.8392,98.1846,284.2577,3.640012,0.1419220,0.38548719,182.5858,09/27.0/2024,2000,g 13.0,4.0
# From MPEC 2024-RQ6
192P/Shoemaker-Levy,e,24.5884,51.6117,313.0882,6.465097,0.0599572,0.77348440,7.5216,09/27.0/2024,2000,g 15.0,4.0
# From MPEC 2024-R10
193P/LINEAR-NEAT,e,10.6820,335.1883,8.1340,3.578685,0.1455857,0.39292082,164.4367,09/27.0/2024,2000,g 14.0,4.0
# From MPEC 2024-GJ3
194P/LINEAR,e,11.8051,349.5240,128.5781,4.120911,0.1178187,0.56328462,27.7753,09/27.0/2024,2000,g 16.0,4.0
# From MPEC 2024-GJ3
195P/Hill,e,36.4243,243.1128,250.3872,6.460327,0.0600236,0.31245078,341.3411,09/27.0/2024,2000,g  8.5,4.0
# From MPEC 2024-GJ3
196P/Tichy,e,19.2996,24.1187,12.1089,3.805143,0.1327846,0.42781948,92.7706,09/27.0/2024,2000,g 13.5,4.0
# From MPEC 2023-UR6
197P/LINEAR,e,25.6346,66.2371,189.6081,2.892909,0.2003097,0.62601729,131.9162,09/27.0/2024,2000,g 16.5,2.0
# From NK 1596
198P/ODAS,e,1.3389,358.1997,69.3133,3.593755,0.1446710,0.44479811,305.3588,09/27.0/2024,2000,g  9.0,4.0
# From MPEC 2024-Q20
199P/Shoemaker,e,24.9387,92.3474,191.7712,5.876576,0.0691859,0.50471506,28.8142,09/27.0/2024,2000,g 10.0,4.0
# From MPEC 2022-C56
200P/Larsen,e,12.0964,234.8046,134.3842,4.951262,0.0894603,0.33170503,168.7432,09/27.0/2024,2000,g  9.0,4.0
# From MPC 93588
201P/LONEOS,e,5.7390,41.5364,19.7786,3.354743,0.1604040,0.63759001,195.4473,09/27.0/2024,2000,g 14.0,4.0
# From MPEC 2023-XP6
202P/Scotti,e,2.1416,177.3046,274.4914,4.100682,0.1186916,0.25142263,15.7452,09/27.0/2024,2000,g 13.5,4.0
# From MPEC 2021-S45
203P/Korlevic,e,2.9748,290.2424,154.8710,4.668516,0.0977093,0.31634861,162.7232,09/27.0/2024,2000,g 14.5,2.0
# From MPEC 2024-JU4
204P/LINEAR-NEAT,e,6.5970,108.4781,356.7030,3.583763,0.1452765,0.48821664,98.7779,09/27.0/2024,2000,g 14.0,4.0
# From MPEC 2023_O39
205P/Giacobini,e,15.3030,179.6173,154.1767,3.542787,0.1478041,0.56738747,146.0138,09/27.0/2024,2000,g 13.0,4.0
# From MPC 75725
206P/Barnard-Boattini,e,33.6286,202.3500,189.5638,3.491140,0.1510961,0.55134156,196.7165,09/27.0/2024,2000,g 19.0,4.0
# From MPEC 2024-NE4
207P/NEAT,e,10.2007,198.1541,273.0004,3.884716,0.1287257,0.75846396,30.7878,09/27.0/2024,2000,g 16.0,4.0
# From MPEC 2024-RQ6
208P/McMillan,e,4.4124,36.3349,310.6940,4.038146,0.1214594,0.37380783,4.1344,09/27.0/2024,2000,g 12.5,4.0
# From MPEC 2024-RQ6
209P/LINEAR,e,21.2824,62.7697,152.4927,2.958630,0.1936726,0.67403505,14.4294,09/27.0/2024,2000,g 17.0,2.0
# From MPC105242
210P/Christensen,e,10.2812,93.8244,345.9048,3.161684,0.1753180,0.83405345,286.0672,09/27.0/2024,2000,g 13.5,4.0
# From MPEC 2024-JU4
211P/Hill,e,18.9216,117.1059,4.3263,3.548841,0.1474261,0.34433726,106.6086,09/27.0/2024,2000,g 12.5,4.0
# From MPEC 2024-GJ3
212P/NEAT,e,22.1487,97.9747,14.0301,3.901216,0.1279099,0.58666814,19.8124,09/27.0/2024,2000,g 17.0,2.0
# From MPEC 2022-GA9
213P/Van Ness,e,10.3810,311.2628,5.8918,3.348638,0.1608428,0.40842419,51.4638,09/27.0/2024,2000,g 10.5,4.0
# From MPC 76570
213P-B/Van Ness,e,10.3742,5.7118,311.4517,3.349016,0.1608156,0.40859783,51.3094,09/27.0/2024,2000,g 17.0,4.0
# From MPC 76570
213P-C/Van Ness,e,10.3716,5.6925,311.4545,3.348398,0.1608601,0.40843953,51.5912,09/27.0/2024,2000,g 17.5,4.0
# From MPC 92986
214P/LINEAR,e,15.1880,348.2165,190.1317,3.617241,0.1432643,0.48599998,104.8475,09/27.0/2024,2000,g 13.0,4.0
# From MPEC 2024-F91
215P/NEAT,e,10.5765,56.6737,262.3603,4.334436,0.1092207,0.16518357,194.0022,09/27.0/2024,2000,g 11.0,4.0
# From MPEC 2024-N80
216P/LINEAR,e,9.0622,359.7956,151.7439,3.859311,0.1299988,0.44884688,34.3319,09/27.0/2024,2000,g 13.0,4.0
# From MPEC 2024-LE0
217P/LINEAR,e,12.8646,125.3740,247.0259,3.945670,0.1257543,0.68917457,329.8278,09/27.0/2024,2000,g 12.0,4.0
# From MPEC 2022-K19
218P/LINEAR,e,2.7237,175.1546,60.6636,3.071682,0.1830795,0.63006705,264.2829,09/27.0/2024,2000,g 16.0,4.0
# From MPEC 2024-RQ6
219P/LINEAR,e,11.5395,230.9537,107.6807,3.647742,0.1414712,0.35436794,31.9697,09/27.0/2024,2000,g 11.0,4.0
# From MPEC 2024-A43
220P/McNaught,e,8.1223,150.1000,180.6047,3.119445,0.1788908,0.50057295,248.1765,09/27.0/2024,2000,g 15.0,4.0
# From MPEC 2022-UY9
221P/LINEAR,e,11.4623,229.4529,39.2798,3.419860,0.1558445,0.50700369,156.7963,09/27.0/2024,2000,g 14.5,4.0
# From MPC 92277
222P/LINEAR,e,5.0960,6.7772,346.2856,2.897734,0.1998096,0.71474018,27.3949,09/27.0/2024,2000,g 20.0,4.0
# From MPEC 2023-A50
223P/Skiff,e,27.0086,346.7273,37.9589,4.158212,0.1162369,0.41644544,240.2192,09/27.0/2024,2000,g 12.0,4.0
# From MPEC 2024-L77
224P/LINEAR-NEAT,e,13.3046,40.0399,16.7790,3.446197,0.1540614,0.40579480,112.1292,09/27.0/2024,2000,g 15.5,4.0
# From MPEC 2024-F91
225P/LINEAR,e,21.3653,14.2039,3.9028,3.647297,0.1414970,0.63835862,58.8643,09/27.0/2024,2000,g 18.0,4.0
# From MPEC 2024-MB8
226P/Pigott-LINEAR-Kowalski,e,44.0454,54.0110,341.0276,3.765600,0.1348816,0.52902723,37.0745,09/27.0/2024,2000,g 12.5,4.0
# From MPEC 2024-R10
227P/Catalina-LINEAR,e,7.5083,36.8094,105.5754,3.436793,0.1546942,0.52756929,31.3618,09/27.0/2024,2000,g 16.5,2.0
# From MPEC 2022-HC2
228P/LINEAR,e,7.9140,30.9673,114.7409,4.163657,0.1160090,0.17702830,193.0133,09/27.0/2024,2000,g 14.1,4.0
# From MPEC 2024-RQ6
229P/Gibbs,e,26.0967,157.8835,224.1965,3.923195,0.1268365,0.37794424,339.7417,09/27.0/2024,2000,g 13.0,4.0
# From MPEC 2024-P23
230P/LINEAR,e,15.4702,106.9366,313.5512,3.454532,0.1535042,0.54562347,141.5890,09/27.0/2024,2000,g 13.0,4.0
# From MPEC 2023-SQ0
231P/LINEAR-NEAT,e,12.2721,132.8303,43.9466,4.057024,0.1206126,0.24036835,234.2240,09/27.0/2024,2000,g 14.5,2.0
# From MPC112394
232P/Hill,e,14.6438,56.0251,53.2400,4.471432,0.1042399,0.33584260,208.3710,09/27.0/2024,2000,g 11.5,4.0
# From MPEC 2021-N06
233P/La Sagra,e,11.2888,74.9004,27.0020,3.026937,0.1871540,0.41285962,272.3836,09/27.0/2024,2000,g 15.0,4.0
# From MPEC 2024-DC6
234P/LINEAR,e,11.5351,179.5677,357.4223,3.796473,0.1332397,0.25698198,356.4576,09/27.0/2024,2000,g 12.0,4.0
# From MPC110497
235P/LINEAR,e,9.5978,203.6702,348.5368,3.497274,0.1506987,0.40623424,288.2551,09/27.0/2024,2000,g 12.0,4.0
# From MPEC 2024-P23
236P/LINEAR,e,16.3557,245.5693,119.4094,3.724912,0.1370977,0.50921412,342.2056,09/27.0/2024,2000,g 14.0,4.0
# From MPEC 2024-RQ6
237P/LINEAR,e,14.0179,245.3514,25.3949,3.513078,0.1496830,0.43368560,75.0193,09/27.0/2024,2000,g 14.5,2.0
# From MPEC 2024-L77
238P/Read,e,1.2640,51.6394,324.2655,3.166606,0.1749093,0.25096196,147.7447,09/27.0/2024,2000,g 14.5,4.0
# From MPEC 2021-F20
239P/LINEAR,e,11.3079,255.9472,220.3514,4.464953,0.1044669,0.63125536,217.9509,09/27.0/2024,2000,g 17.5,2.0
# From MPEC 2024-RQ6
240P/NEAT,e,23.5371,74.9163,352.0369,3.861158,0.1299056,0.45035189,301.6823,09/27.0/2024,2000,g 11.0,4.0
# From MPEC 2022-J42
241P/LINEAR,e,21.0948,305.4446,111.5574,4.926042,0.0901482,0.61038519,104.4590,09/27.0/2024,2000,g 13.5,4.0
# From MPEC 2024-RQ6
242P/Spahr,e,32.4379,180.3255,244.8728,5.534536,0.0756976,0.28239380,353.4069,09/27.0/2024,2000,g  8.0,4.0
# From MPEC 2022-K19
243P/NEAT,e,7.6440,87.6481,283.6792,3.827994,0.1315974,0.36048639,292.0421,09/27.0/2024,2000,g 12.5,4.0
# From MPEC 2024-L77
244P/Scotti,e,2.2583,354.0102,93.3632,4.902081,0.0908099,0.19986555,61.5491,09/27.0/2024,2000,g  9.0,4.0
# From MPEC 2022-CN4
245P/WISE,e,21.1738,316.8888,316.5324,4.051061,0.1208790,0.45568842,293.4792,09/27.0/2024,2000,g 14.0,4.0
# From MPEC 2024-L77
246P/NEAT,e,17.7387,74.2383,185.2876,4.191812,0.1148422,0.25127692,154.3514,09/27.0/2024,2000,g 10.5,4.0
# From MPEC 2021-F20
247P/LINEAR,e,13.6585,54.0032,47.4610,3.965122,0.1248301,0.62545709,265.2564,09/27.0/2024,2000,g 16.5,2.0
# From MPC 75730
248P/Gibbs,e,6.3515,207.8110,209.9552,5.983716,0.0673360,0.63933212,336.2381,09/27.0/2024,2000,g 14.0,4.0
# From MPEC 2022-YN2
